{"type": "FeatureCollection", "features": [ {"type": "Feature", "properties": {"norad_id": 40701, "name": "GAOFEN-8", "group": "resource", "lat": 8.078664455708086, "lon": 0.9154525142785019, "alt_km": 449.790967065348, "timestamp": "2025-12-26T23:26:41.810809+00:00", "meta": {"OBJECT_NAME": "GAOFEN-8", "OBJECT_ID": "2015-030A", "EPOCH": "2025-12-26T18:01:16.204800", "MEAN_MOTION": 15.3907511, "ECCENTRICITY": 0.0011531, "INCLINATION": 97.6905, "RA_OF_ASC_NODE": 179.5793, "ARG_OF_PERICENTER": 89.7977, "MEAN_ANOMALY": 270.4589, "EPHEMERIS_TYPE": 0, "CLASSIFICATION_TYPE": "U", "NORAD_CAT_ID": 40701, "ELEMENT_SET_NO": 999, "REV_AT_EPOCH": 58486, "BSTAR": 0.00078427, "MEAN_MOTION_DOT": 0.00030421, "MEAN_MOTION_DDOT": 0}, "tle": {"line1": "1 40701U 15030A   25360.75088200  .00030421  00000+0  78427-3 0  9997", "line2": "2 40701  97.6905 179.5793 0011531  89.7977 270.4589 15.39075110584867"}}, "geometry": {"type": "Point", "coordinates": [0.9154525142785019, 8.078664455708086]}}, {"type": "Feature", "properties": {"norad_id": 40718, "name": "CARBONITE 1 (CBNT-1)", "group": "resource", "lat": 62.58891638124959, "lon": 16.397231791645734, "alt_km": 604.1652037916801, "timestamp": "2025-12-26T23:26:41.810819+00:00", "meta": {"OBJECT_NAME": "CARBONITE 1 (CBNT-1)", "OBJECT_ID": "2015-032D", "EPOCH": "2025-12-26T18:03:49.372992", "MEAN_MOTION": 14.82811755, "ECCENTRICITY": 0.0015447, "INCLINATION": 97.6408, "RA_OF_ASC_NODE": 181.1805, "ARG_OF_PERICENTER": 136.3715, "MEAN_ANOMALY": 223.8724, "EPHEMERIS_TYPE": 0, "CLASSIFICATION_TYPE": "U", "NORAD_CAT_ID": 40718, "ELEMENT_SET_NO": 999, "REV_AT_EPOCH": 56378, "BSTAR": 0.00047809, "MEAN_MOTION_DOT": 3.826e-05, "MEAN_MOTION_DDOT": 0}, "tle": {"line1": "1 40718U 15032D   25360.75265478  .00003826  00000+0  47809-3 0  9990", "line2": "2 40718  97.6408 181.1805 0015447 136.3715 223.8724 14.82811755563786"}}, "geometry": {"type": "Point", "coordinates": [16.397231791645734, 62.58891638124959]}}, {"type": "Feature", "properties": {"norad_id": 40878, "name": "YAOGAN-27", "group": "resource", "lat": -72.99568491950109, "lon": 25.611796463989972, "alt_km": 1202.1729498962777, "timestamp": "2025-12-26T23:26:41.810828+00:00", "meta": {"OBJECT_NAME": "YAOGAN-27", "OBJECT_ID": "2015-040A", "EPOCH": "2025-12-26T18:21:29.184768", "MEAN_MOTION": 13.16060161, "ECCENTRICITY": 0.0007589, "INCLINATION": 100.1025, "RA_OF_ASC_NODE": 349.7509, "ARG_OF_PERICENTER": 251.9516, "MEAN_ANOMALY": 108.0771, "EPHEMERIS_TYPE": 0, "CLASSIFICATION_TYPE": "U", "NORAD_CAT_ID": 40878, "ELEMENT_SET_NO": 999, "REV_AT_EPOCH": 49498, "BSTAR": -0.00099411, "MEAN_MOTION_DOT": -4.2e-06, "MEAN_MOTION_DDOT": 0}, "tle": {"line1": "1 40878U 15040A   25360.76492112 -.00000420  00000+0 -99411-3 0  9999", "line2": "2 40878 100.1025 349.7509 0007589 251.9516 108.0771 13.16060161494986"}}, "geometry": {"type": "Point", "coordinates": [25.611796463989972, -72.99568491950109]}}, {"type": "Feature", "properties": {"norad_id": 40894, "name": "GAOFEN-9 01", "group": "resource", "lat": 19.842195569262017, "lon": 36.53544975818304, "alt_km": 605.5291917474033, "timestamp": "2025-12-26T23:26:41.810837+00:00", "meta": {"OBJECT_NAME": "GAOFEN-9 01", "OBJECT_ID": "2015-047A", "EPOCH": "2025-12-26T18:29:44.001024", "MEAN_MOTION": 14.82456396, "ECCENTRICITY": 0.0027243, "INCLINATION": 97.6525, "RA_OF_ASC_NODE": 39.1191, "ARG_OF_PERICENTER": 348.7667, "MEAN_ANOMALY": 11.2936, "EPHEMERIS_TYPE": 0, "CLASSIFICATION_TYPE": "U", "NORAD_CAT_ID": 40894, "ELEMENT_SET_NO": 999, "REV_AT_EPOCH": 55464, "BSTAR": 0.00016024, "MEAN_MOTION_DOT": 1.242e-05, "MEAN_MOTION_DDOT": 0}, "tle": {"line1": "1 40894U 15047A   25360.77064816  .00001242  00000+0  16024-3 0  9991", "line2": "2 40894  97.6525  39.1191 0027243 348.7667  11.2936 14.82456396554648"}}, "geometry": {"type": "Point", "coordinates": [36.53544975818304, 19.842195569262017]}}, {"type": "Feature", "properties": {"norad_id": 41026, "name": "YAOGAN-28", "group": "resource", "lat": 17.847497666665856, "lon": -39.27088209860204, "alt_km": 491.19391517582335, "timestamp": "2025-12-26T23:26:41.810848+00:00", "meta": {"OBJECT_NAME": "YAOGAN-28", "OBJECT_ID": "2015-064A", "EPOCH": "2025-12-26T18:00:45.793728", "MEAN_MOTION": 15.24575383, "ECCENTRICITY": 0.0012641, "INCLINATION": 97.2815, "RA_OF_ASC_NODE": 138.1496, "ARG_OF_PERICENTER": 81.6367, "MEAN_ANOMALY": 278.6304, "EPHEMERIS_TYPE": 0, "CLASSIFICATION_TYPE": "U", "NORAD_CAT_ID": 41026, "ELEMENT_SET_NO": 999, "REV_AT_EPOCH": 56438, "BSTAR": 0.00034884, "MEAN_MOTION_DOT": 8.547e-05, "MEAN_MOTION_DDOT": 0}, "tle": {"line1": "1 41026U 15064A   25360.75053002  .00008547  00000+0  34884-3 0  9990", "line2": "2 41026  97.2815 138.1496 0012641  81.6367 278.6304 15.24575383564383"}}, "geometry": {"type": "Point", "coordinates": [-39.27088209860204, 17.847497666665856]}}, {"type": "Feature", "properties": {"norad_id": 41038, "name": "YAOGAN-29", "group": "resource", "lat": -67.3325102054716, "lon": 43.92530696983868, "alt_km": 627.9132578094141, "timestamp": "2025-12-26T23:26:41.810858+00:00", "meta": {"OBJECT_NAME": "YAOGAN-29", "OBJECT_ID": "2015-069A", "EPOCH": "2025-12-26T18:53:46.307328", "MEAN_MOTION": 14.82897963, "ECCENTRICITY": 9.67e-05, "INCLINATION": 98.0208, "RA_OF_ASC_NODE": 24.003, "ARG_OF_PERICENTER": 158.0938, "MEAN_ANOMALY": 202.0316, "EPHEMERIS_TYPE": 0, "CLASSIFICATION_TYPE": "U", "NORAD_CAT_ID": 41038, "ELEMENT_SET_NO": 999, "REV_AT_EPOCH": 54507, "BSTAR": 6.1553e-05, "MEAN_MOTION_DOT": 4.45e-06, "MEAN_MOTION_DDOT": 0}, "tle": {"line1": "1 41038U 15069A   25360.78734152  .00000445  00000+0  61553-4 0  9996", "line2": "2 41038  98.0208  24.0030 0000967 158.0938 202.0316 14.82897963545072"}}, "geometry": {"type": "Point", "coordinates": [43.92530696983868, -67.3325102054716]}}, {"type": "Feature", "properties": {"norad_id": 41167, "name": "KENT RIDGE 1", "group": "resource", "lat": -13.964175873721045, "lon": -6.068832253967207, "alt_km": 498.6772823444189, "timestamp": "2025-12-26T23:26:41.810867+00:00", "meta": {"OBJECT_NAME": "KENT RIDGE 1", "OBJECT_ID": "2015-077B", "EPOCH": "2025-12-26T12:55:02.392032", "MEAN_MOTION": 15.21738831, "ECCENTRICITY": 0.0008524, "INCLINATION": 14.9791, "RA_OF_ASC_NODE": 108.7428, "ARG_OF_PERICENTER": 325.4812, "MEAN_ANOMALY": 34.4956, "EPHEMERIS_TYPE": 0, "CLASSIFICATION_TYPE": "U", "NORAD_CAT_ID": 41167, "ELEMENT_SET_NO": 999, "REV_AT_EPOCH": 55474, "BSTAR": 0.00016759, "MEAN_MOTION_DOT": 4.67e-05, "MEAN_MOTION_DDOT": 0}, "tle": {"line1": "1 41167U 15077B   25360.53822213  .00004670  00000+0  16759-3 0  9998", "line2": "2 41167  14.9791 108.7428 0008524 325.4812  34.4956 15.21738831554741"}}, "geometry": {"type": "Point", "coordinates": [-6.068832253967207, -13.964175873721045]}}, {"type": "Feature", "properties": {"norad_id": 41194, "name": "GAOFEN-4", "group": "resource", "lat": 0.18904258041463504, "lon": -166.91301185774827, "alt_km": 35775.51371514653, "timestamp": "2025-12-26T23:26:41.810879+00:00", "meta": {"OBJECT_NAME": "GAOFEN-4", "OBJECT_ID": "2015-083A", "EPOCH": "2025-12-26T18:07:38.790048", "MEAN_MOTION": 1.00269051, "ECCENTRICITY": 0.000282, "INCLINATION": 0.204, "RA_OF_ASC_NODE": 82.008, "ARG_OF_PERICENTER": 94.4058, "MEAN_ANOMALY": 296.6921, "EPHEMERIS_TYPE": 0, "CLASSIFICATION_TYPE": "U", "NORAD_CAT_ID": 41194, "ELEMENT_SET_NO": 999, "REV_AT_EPOCH": 3680, "BSTAR": 0, "MEAN_MOTION_DOT": -3.12e-06, "MEAN_MOTION_DDOT": 0}, "tle": {"line1": "1 41194U 15083A   25360.75531007 -.00000312  00000+0  00000+0 0  9995", "line2": "2 41194   0.2040  82.0080 0002820  94.4058 296.6921  1.00269051 36803"}}, "geometry": {"type": "Point", "coordinates": [-166.91301185774827, 0.18904258041463504]}}, {"type": "Feature", "properties": {"norad_id": 41240, "name": "JASON-3", "group": "resource", "lat": 52.73463719391891, "lon": 163.65184731708692, "alt_km": 1309.943395862645, "timestamp": "2025-12-26T23:26:41.810889+00:00", "meta": {"OBJECT_NAME": "JASON-3", "OBJECT_ID": "2016-002A", "EPOCH": "2025-12-26T17:32:20.973120", "MEAN_MOTION": 12.87627205, "ECCENTRICITY": 0.0007333, "INCLINATION": 66.0408, "RA_OF_ASC_NODE": 128.4095, "ARG_OF_PERICENTER": 271.6728, "MEAN_ANOMALY": 88.3451, "EPHEMERIS_TYPE": 0, "CLASSIFICATION_TYPE": "U", "NORAD_CAT_ID": 41240, "ELEMENT_SET_NO": 999, "REV_AT_EPOCH": 46504, "BSTAR": 0.00021204, "MEAN_MOTION_DOT": -9e-08, "MEAN_MOTION_DDOT": 0}, "tle": {"line1": "1 41240U 16002A   25360.73079830 -.00000009  00000+0  21204-3 0  9994", "line2": "2 41240  66.0408 128.4095 0007333 271.6728  88.3451 12.87627205465043"}}, "geometry": {"type": "Point", "coordinates": [163.65184731708692, 52.73463719391891]}}, {"type": "Feature", "properties": {"norad_id": 41335, "name": "SENTINEL-3A", "group": "resource", "lat": -3.1301374473823698, "lon": 66.26643469076006, "alt_km": 806.0999943350243, "timestamp": "2025-12-26T23:26:41.810898+00:00", "meta": {"OBJECT_NAME": "SENTINEL-3A", "OBJECT_ID": "2016-011A", "EPOCH": "2025-12-26T18:24:37.421856", "MEAN_MOTION": 14.26736057, "ECCENTRICITY": 8.89e-05, "INCLINATION": 98.6296, "RA_OF_ASC_NODE": 65.5838, "ARG_OF_PERICENTER": 97.7597, "MEAN_ANOMALY": 262.3685, "EPHEMERIS_TYPE": 0, "CLASSIFICATION_TYPE": "U", "NORAD_CAT_ID": 41335, "ELEMENT_SET_NO": 999, "REV_AT_EPOCH": 51347, "BSTAR": 7.7162e-05, "MEAN_MOTION_DOT": 1.43e-06, "MEAN_MOTION_DDOT": 0}, "tle": {"line1": "1 41335U 16011A   25360.76709979  .00000143  00000+0  77162-4 0  9999", "line2": "2 41335  98.6296  65.5838 0000889  97.7597 262.3685 14.26736057513475"}}, "geometry": {"type": "Point", "coordinates": [66.26643469076006, -3.1301374473823698]}}]}